[{"OBJECT_NAME":"STARLINK-3521","OBJECT_ID":"2022-016AE","EPOCH":"2026-03-09T23:25:25.862592","MEAN_MOTION":15.08832872,"ECCENTRICITY":0.0001343,"INCLINATION":53.2193,"RA_OF_ASC_NODE":318.0267,"ARG_OF_PERICENTER":102.0093,"MEAN_ANOMALY":258.105,"EPHEMERIS_TYPE":0,"CLASSIFICATION_TYPE":"U","NORAD_CAT_ID":51742,"ELEMENT_SET_NO":999,"REV_AT_EPOCH":22360,"BSTAR":-2.4279645e-5,"MEAN_MOTION_DOT":-6.74e-6,"MEAN_MOTION_DDOT":0},{"OBJECT_NAME":"OBJECT G","OBJECT_ID":"2025-292G","EPOCH":"2026-03-09T22:41:34.708704","MEAN_MOTION":15.05879657,"ECCENTRICITY":0.00150455,"INCLINATION":97.6425,"RA_OF_ASC_NODE":145.7524,"ARG_OF_PERICENTER":352.95,"MEAN_ANOMALY":7.1513,"EPHEMERIS_TYPE":0,"CLASSIFICATION_TYPE":"U","NORAD_CAT_ID":66999,"ELEMENT_SET_NO":999,"REV_AT_EPOCH":1351,"BSTAR":0.00047153864,"MEAN_MOTION_DOT":6.807e-5,"MEAN_MOTION_DDOT":0}]
